RESURS-DK 1             
1 29228U 06021A   26174.38123095  .00003257  00000+0  18882-3 0  9999
2 29228  69.9346 323.5181 0006567 293.0042  67.0431 15.13241898103512
SAR-LUPE 2              
1 31797U 07030A   26175.25171792  .00033370  00000+0  57334-3 0  9992
2 31797  98.1043 280.5639 0003029 157.7079 202.4303 15.51078243 58033
SARAL                   
1 39086U 13009A   26175.23346968  .00000073  00000+0  42792-4 0  9998
2 39086  98.5559   1.7113 0000642 250.1647 109.9468 14.32857446696618
SAOCOM 1A               
1 43641U 18076A   26175.29217345  .00000584  00000+0  79878-4 0  9993
2 43641  97.8890   1.9374 0001592  81.3582 278.7811 14.82153808417151
SAUDISAT 5A             
1 43831U 18102A   26175.30257485  .00004922  00000+0  18197-3 0  9991
2 43831  97.3067 236.7464 0011292 107.4765 252.7710 15.28110928416765
RISAT-2B                
1 44233U 19028A   26175.26655887  .00003015  00000+0  23356-3 0  9994
2 44233  36.9978 312.1037 0003707  95.1708 264.9458 15.01692759388893
SAOCOM 1B               
1 46265U 20059A   26175.25582646 -.00000257  00000+0 -25737-4 0  9991
2 46265  97.8894   0.9967 0001610  82.9158 277.2239 14.82148217314538
RISAT-2BR2              
1 46905U 20081A   26175.33006347  .00001426  00000+0  11356-3 0  9993
2 46905  36.8972 181.8584 0011676 223.4260 136.5562 15.01647501308544
RESURS-P 4              
1 59371U 24061A   26175.25134913  .00002593  00000+0  85941-4 0  9996
2 59371  97.2749 123.0268 0002634 118.1571 241.9937 15.32165872124840
