{
 "generated_at": "2026-06-25T08:23:36Z",
 "sources": [
  {
   "name": "CelesTrak",
   "url": "https://celestrak.org/NORAD/elements/",
   "license": "frei verfügbar; Attribution. Ursprünglich USSPACECOM/Space-Track."
  },
  {
   "name": "GCAT (J. McDowell, planet4589.org)",
   "url": "https://planet4589.org/space/gcat/",
   "license": "CC-BY 4.0"
  }
 ],
 "satellites": [
  {
   "norad": 29228,
   "name": "RESURS-DK 1",
   "intl": "2006-021A",
   "group": "resource",
   "gcat": {
    "class": null,
    "category": null,
    "owner": null,
    "state": null
   },
   "omm": {
    "OBJECT_NAME": "RESURS-DK 1",
    "OBJECT_ID": "2006-021A",
    "EPOCH": "2026-06-23T09:08:58.354080",
    "MEAN_MOTION": 15.13241898,
    "ECCENTRICITY": 0.00065671,
    "INCLINATION": 69.9346,
    "RA_OF_ASC_NODE": 323.5181,
    "ARG_OF_PERICENTER": 293.0042,
    "MEAN_ANOMALY": 67.0431,
    "EPHEMERIS_TYPE": 0,
    "CLASSIFICATION_TYPE": "U",
    "NORAD_CAT_ID": 29228,
    "ELEMENT_SET_NO": 999,
    "REV_AT_EPOCH": 10351,
    "BSTAR": 0.00018882155,
    "MEAN_MOTION_DOT": 0.00003257,
    "MEAN_MOTION_DDOT": 0
   }
  },
  {
   "norad": 59371,
   "name": "RESURS-P 4",
   "intl": "2024-061A",
   "group": "resource",
   "gcat": {
    "class": "C",
    "category": "IMG",
    "owner": "TSSKBP?",
    "state": "RU"
   },
   "omm": {
    "OBJECT_NAME": "RESURS-P 4",
    "OBJECT_ID": "2024-061A",
    "EPOCH": "2026-06-24T06:01:56.564832",
    "MEAN_MOTION": 15.32165872,
    "ECCENTRICITY": 0.00026341,
    "INCLINATION": 97.2749,
    "RA_OF_ASC_NODE": 123.0268,
    "ARG_OF_PERICENTER": 118.1571,
    "MEAN_ANOMALY": 241.9937,
    "EPHEMERIS_TYPE": 0,
    "CLASSIFICATION_TYPE": "U",
    "NORAD_CAT_ID": 59371,
    "ELEMENT_SET_NO": 999,
    "REV_AT_EPOCH": 12484,
    "BSTAR": 0.000085941127,
    "MEAN_MOTION_DOT": 0.00002593,
    "MEAN_MOTION_DDOT": 0
   }
  },
  {
   "norad": 44233,
   "name": "RISAT-2B",
   "intl": "2019-028A",
   "group": "sar",
   "gcat": {
    "class": "C",
    "category": "IMG-R",
    "owner": "ISRO",
    "state": "IN"
   },
   "omm": {
    "OBJECT_NAME": "RISAT-2B",
    "OBJECT_ID": "2019-028A",
    "EPOCH": "2026-06-24T06:23:50.686368",
    "MEAN_MOTION": 15.01692759,
    "ECCENTRICITY": 0.00037073,
    "INCLINATION": 36.9978,
    "RA_OF_ASC_NODE": 312.1037,
    "ARG_OF_PERICENTER": 95.1708,
    "MEAN_ANOMALY": 264.9458,
    "EPHEMERIS_TYPE": 0,
    "CLASSIFICATION_TYPE": "U",
    "NORAD_CAT_ID": 44233,
    "ELEMENT_SET_NO": 999,
    "REV_AT_EPOCH": 38889,
    "BSTAR": 0.0002335645,
    "MEAN_MOTION_DOT": 0.00003015,
    "MEAN_MOTION_DDOT": 0
   }
  },
  {
   "norad": 46905,
   "name": "RISAT-2BR2",
   "intl": "2020-081A",
   "group": "sar",
   "gcat": {
    "class": "C",
    "category": "IMG-R",
    "owner": "ISRO",
    "state": "IN"
   },
   "omm": {
    "OBJECT_NAME": "RISAT-2BR2",
    "OBJECT_ID": "2020-081A",
    "EPOCH": "2026-06-24T07:55:17.483808",
    "MEAN_MOTION": 15.01647501,
    "ECCENTRICITY": 0.00116764,
    "INCLINATION": 36.8972,
    "RA_OF_ASC_NODE": 181.8584,
    "ARG_OF_PERICENTER": 223.426,
    "MEAN_ANOMALY": 136.5562,
    "EPHEMERIS_TYPE": 0,
    "CLASSIFICATION_TYPE": "U",
    "NORAD_CAT_ID": 46905,
    "ELEMENT_SET_NO": 999,
    "REV_AT_EPOCH": 30854,
    "BSTAR": 0.00011356123,
    "MEAN_MOTION_DOT": 0.00001426,
    "MEAN_MOTION_DDOT": 0
   }
  },
  {
   "norad": 43641,
   "name": "SAOCOM 1A",
   "intl": "2018-076A",
   "group": "sar",
   "gcat": {
    "class": "C",
    "category": "IMG-R",
    "owner": "CONAE",
    "state": "AR"
   },
   "omm": {
    "OBJECT_NAME": "SAOCOM 1A",
    "OBJECT_ID": "2018-076A",
    "EPOCH": "2026-06-24T07:00:43.786080",
    "MEAN_MOTION": 14.82153808,
    "ECCENTRICITY": 0.00015921,
    "INCLINATION": 97.889,
    "RA_OF_ASC_NODE": 1.9374,
    "ARG_OF_PERICENTER": 81.3582,
    "MEAN_ANOMALY": 278.7811,
    "EPHEMERIS_TYPE": 0,
    "CLASSIFICATION_TYPE": "U",
    "NORAD_CAT_ID": 43641,
    "ELEMENT_SET_NO": 999,
    "REV_AT_EPOCH": 41715,
    "BSTAR": 0.000079877722,
    "MEAN_MOTION_DOT": 0.00000584,
    "MEAN_MOTION_DDOT": 0
   }
  },
  {
   "norad": 46265,
   "name": "SAOCOM 1B",
   "intl": "2020-059A",
   "group": "sar",
   "gcat": {
    "class": "C",
    "category": "IMG-R",
    "owner": "CONAE",
    "state": "AR"
   },
   "omm": {
    "OBJECT_NAME": "SAOCOM 1B",
    "OBJECT_ID": "2020-059A",
    "EPOCH": "2026-06-24T06:08:23.406144",
    "MEAN_MOTION": 14.82148217,
    "ECCENTRICITY": 0.00016104,
    "INCLINATION": 97.8894,
    "RA_OF_ASC_NODE": 0.9967,
    "ARG_OF_PERICENTER": 82.9158,
    "MEAN_ANOMALY": 277.2239,
    "EPHEMERIS_TYPE": 0,
    "CLASSIFICATION_TYPE": "U",
    "NORAD_CAT_ID": 46265,
    "ELEMENT_SET_NO": 999,
    "REV_AT_EPOCH": 31453,
    "BSTAR": -0.000025736634,
    "MEAN_MOTION_DOT": -0.00000257,
    "MEAN_MOTION_DDOT": 0
   }
  },
  {
   "norad": 31797,
   "name": "SAR-LUPE 2",
   "intl": "2007-030A",
   "group": "sar",
   "gcat": {
    "class": "D",
    "category": "IMG-R",
    "owner": "BWB",
    "state": "D"
   },
   "omm": {
    "OBJECT_NAME": "SAR-LUPE 2",
    "OBJECT_ID": "2007-030A",
    "EPOCH": "2026-06-24T06:02:28.428288",
    "MEAN_MOTION": 15.51078243,
    "ECCENTRICITY": 0.00030295,
    "INCLINATION": 98.1043,
    "RA_OF_ASC_NODE": 280.5639,
    "ARG_OF_PERICENTER": 157.7079,
    "MEAN_ANOMALY": 202.4303,
    "EPHEMERIS_TYPE": 0,
    "CLASSIFICATION_TYPE": "U",
    "NORAD_CAT_ID": 31797,
    "ELEMENT_SET_NO": 999,
    "REV_AT_EPOCH": 5803,
    "BSTAR": 0.00057334146,
    "MEAN_MOTION_DOT": 0.0003337,
    "MEAN_MOTION_DDOT": 0
   }
  },
  {
   "norad": 39086,
   "name": "SARAL",
   "intl": "2013-009A",
   "group": "resource",
   "gcat": {
    "class": "C",
    "category": "SCI",
    "owner": "ISRO/CNES",
    "state": "IN"
   },
   "omm": {
    "OBJECT_NAME": "SARAL",
    "OBJECT_ID": "2013-009A",
    "EPOCH": "2026-06-24T05:36:11.780352",
    "MEAN_MOTION": 14.32857446,
    "ECCENTRICITY": 0.00006422,
    "INCLINATION": 98.5559,
    "RA_OF_ASC_NODE": 1.7113,
    "ARG_OF_PERICENTER": 250.1647,
    "MEAN_ANOMALY": 109.9468,
    "EPHEMERIS_TYPE": 0,
    "CLASSIFICATION_TYPE": "U",
    "NORAD_CAT_ID": 39086,
    "ELEMENT_SET_NO": 999,
    "REV_AT_EPOCH": 69661,
    "BSTAR": 0.000042791526,
    "MEAN_MOTION_DOT": 7.3e-7,
    "MEAN_MOTION_DDOT": 0
   }
  },
  {
   "norad": 43831,
   "name": "SAUDISAT 5A",
   "intl": "2018-102A",
   "group": "resource",
   "gcat": {
    "class": "C",
    "category": "TECH",
    "owner": "KACST",
    "state": "SA"
   },
   "omm": {
    "OBJECT_NAME": "SAUDISAT 5A",
    "OBJECT_ID": "2018-102A",
    "EPOCH": "2026-06-24T07:15:42.467040",
    "MEAN_MOTION": 15.28110928,
    "ECCENTRICITY": 0.0011292,
    "INCLINATION": 97.3067,
    "RA_OF_ASC_NODE": 236.7464,
    "ARG_OF_PERICENTER": 107.4765,
    "MEAN_ANOMALY": 252.771,
    "EPHEMERIS_TYPE": 0,
    "CLASSIFICATION_TYPE": "U",
    "NORAD_CAT_ID": 43831,
    "ELEMENT_SET_NO": 999,
    "REV_AT_EPOCH": 41676,
    "BSTAR": 0.00018196984,
    "MEAN_MOTION_DOT": 0.00004922,
    "MEAN_MOTION_DDOT": 0
   }
  }
 ]
}
